start=new Date('2023-04-24T00:00:00.000Z').valueOf();
sats=[{"REF_FRAME":"TEME","ELEMENT_SET_NO":"999","EPOCH":"2023-04-23T14:40:52.951872","TLE_LINE2":"2 49762  53.2162 177.5883 0001601  87.2260 272.8916 15.08828701 77000","RCS_SIZE":"LARGE","LAUNCH_DATE":"2021-12-02","COUNTRY_CODE":"US","MEAN_ELEMENT_THEORY":"SGP4","REV_AT_EPOCH":"7700","TIME_SYSTEM":"UTC","MEAN_ANOMALY":"272.8916","INCLINATION":"53.2162","TLE_LINE1":"1 49762U 21115AQ  23113.61172398 -.00000155  00000-0  83825-5 0  9998","SITE":"AFETR","PERIAPSIS":"538.672","MEAN_MOTION_DDOT":"0.0000000000000","FILE":"3892831","OBJECT_NAME":"STARLINK-3195","EPHEMERIS_TYPE":"0","PERIOD":"95.438","MEAN_MOTION":"15.08828701","CENTER_NAME":"EARTH","ECCENTRICITY":"0.00016010","NORAD_CAT_ID":"49762","BSTAR":"0.00000838250000","GP_ID":"230658302","CLASSIFICATION_TYPE":"U","MEAN_MOTION_DOT":"-0.00000155","ARG_OF_PERICENTER":"87.2260","SEMIMAJOR_AXIS":"6917.915","RA_OF_ASC_NODE":"177.5883","APOAPSIS":"540.887","OBJECT_TYPE":"PAYLOAD","DECAY_DATE":null,"OBJECT_ID":"2021-115AQ"},{"MEAN_MOTION":"15.08843333","PERIOD":"95.437","PERIAPSIS":"538.845","TLE_LINE1":"1 49763U 21115AR  23113.66691146  .00008868  00000-0  57453-3 0  9995","INCLINATION":"53.2136","SITE":"AFETR","MEAN_ANOMALY":"291.0348","FILE":"3892831","OBJECT_NAME":"STARLINK-3198","EPHEMERIS_TYPE":"0","MEAN_MOTION_DDOT":"0.0000000000000","RA_OF_ASC_NODE":"177.3443","SEMIMAJOR_AXIS":"6917.870","DECAY_DATE":null,"OBJECT_ID":"2021-115AR","OBJECT_TYPE":"PAYLOAD","APOAPSIS":"540.626","BSTAR":"0.00057453000000","NORAD_CAT_ID":"49763","ECCENTRICITY":"0.00012870","CENTER_NAME":"EARTH","MEAN_MOTION_DOT":"0.00008868","ARG_OF_PERICENTER":"69.0782","CLASSIFICATION_TYPE":"U","GP_ID":"230659053","RCS_SIZE":"LARGE","COUNTRY_CODE":"US","LAUNCH_DATE":"2021-12-02","REF_FRAME":"TEME","TLE_LINE2":"2 49763  53.2136 177.3443 0001287  69.0782 291.0348 15.08843333 77010","EPOCH":"2023-04-23T16:00:21.150144","ELEMENT_SET_NO":"999","REV_AT_EPOCH":"7701","TIME_SYSTEM":"UTC","MEAN_ELEMENT_THEORY":"SGP4"},{"LAUNCH_DATE":"2021-12-02","COUNTRY_CODE":"US","RCS_SIZE":"LARGE","ELEMENT_SET_NO":"999","TLE_LINE2":"2 49764  53.2139 177.2598 0001235  95.6999 264.4134 15.08831295 78137","EPOCH":"2023-04-23T16:26:51.217728","REF_FRAME":"TEME","REV_AT_EPOCH":"7813","TIME_SYSTEM":"UTC","MEAN_ELEMENT_THEORY":"SGP4","PERIOD":"95.438","MEAN_MOTION":"15.08831295","MEAN_MOTION_DDOT":"0.0000000000000","EPHEMERIS_TYPE":"0","FILE":"3892831","OBJECT_NAME":"STARLINK-3206","MEAN_ANOMALY":"264.4134","SITE":"AFETR","TLE_LINE1":"1 49764U 21115AS  23113.68531502  .00003129  00000-0  21467-3 0  9998","INCLINATION":"53.2139","PERIAPSIS":"538.918","APOAPSIS":"540.626","OBJECT_TYPE":"PAYLOAD","DECAY_DATE":null,"OBJECT_ID":"2021-115AS","SEMIMAJOR_AXIS":"6917.907","RA_OF_ASC_NODE":"177.2598","GP_ID":"230659304","CLASSIFICATION_TYPE":"U","MEAN_MOTION_DOT":"0.00003129","ARG_OF_PERICENTER":"95.6999","ECCENTRICITY":"0.00012350","CENTER_NAME":"EARTH","NORAD_CAT_ID":"49764","BSTAR":"0.00021467000000"},{"MEAN_MOTION":"15.08835186","PERIOD":"95.438","PERIAPSIS":"538.618","TLE_LINE1":"1 49765U 21115AT  23113.67523076 -.00000370  00000-0 -51524-5 0  9991","SITE":"AFETR","INCLINATION":"53.2140","MEAN_ANOMALY":"248.3542","OBJECT_NAME":"STARLINK-3227","FILE":"3892831","EPHEMERIS_TYPE":"0","MEAN_MOTION_DDOT":"0.0000000000000","RA_OF_ASC_NODE":"177.3138","SEMIMAJOR_AXIS":"6917.895","DECAY_DATE":null,"OBJECT_ID":"2021-115AT","OBJECT_TYPE":"PAYLOAD","APOAPSIS":"540.902","BSTAR":"-0.00000515240000","NORAD_CAT_ID":"49765","ECCENTRICITY":"0.00016510","CENTER_NAME":"EARTH","MEAN_MOTION_DOT":"-0.00000370","ARG_OF_PERICENTER":"111.7626","CLASSIFICATION_TYPE":"U","GP_ID":"230659550","RCS_SIZE":"LARGE","LAUNCH_DATE":"2021-12-02","COUNTRY_CODE":"US","REF_FRAME":"TEME","EPOCH":"2023-04-23T16:12:19.937664","TLE_LINE2":"2 49765  53.2140 177.3138 0001651 111.7626 248.3542 15.08835186 77013","ELEMENT_SET_NO":"999","TIME_SYSTEM":"UTC","REV_AT_EPOCH":"7701","MEAN_ELEMENT_THEORY":"SGP4"},{"REF_FRAME":"TEME","ELEMENT_SET_NO":"999","TLE_LINE2":"2 49766  53.2145 177.2501 0001243  88.1295 271.9840 15.08843300 77018","EPOCH":"2023-04-23T16:33:31.794048","RCS_SIZE":"LARGE","LAUNCH_DATE":"2021-12-02","COUNTRY_CODE":"US","MEAN_ELEMENT_THEORY":"SGP4","TIME_SYSTEM":"UTC","REV_AT_EPOCH":"7701","MEAN_ANOMALY":"271.9840","INCLINATION":"53.2145","TLE_LINE1":"1 49766U 21115AU  23113.68995132  .00009150  00000-0  59215-3 0  9995","SITE":"AFETR","PERIAPSIS":"538.875","MEAN_MOTION_DDOT":"0.0000000000000","OBJECT_NAME":"STARLINK-3190","FILE":"3892831","EPHEMERIS_TYPE":"0","PERIOD":"95.437","MEAN_MOTION":"15.08843300","CENTER_NAME":"EARTH","ECCENTRICITY":"0.00012430","NORAD_CAT_ID":"49766","BSTAR":"0.00059215000000","GP_ID":"230658803","CLASSIFICATION_TYPE":"U","MEAN_MOTION_DOT":"0.00009150","ARG_OF_PERICENTER":"88.1295","SEMIMAJOR_AXIS":"6917.870","RA_OF_ASC_NODE":"177.2501","OBJECT_TYPE":"PAYLOAD","APOAPSIS":"540.595","OBJECT_ID":"2021-115AU","DECAY_DATE":null},{"MEAN_ELEMENT_THEORY":"SGP4","REV_AT_EPOCH":"7697","TIME_SYSTEM":"UTC","REF_FRAME":"TEME","ELEMENT_SET_NO":"999","TLE_LINE2":"2 49767  53.2175 178.4701 0001179  90.5078 269.6049 15.08827823 76972","EPOCH":"2023-04-23T10:00:01.321344","RCS_SIZE":"LARGE","COUNTRY_CODE":"US","LAUNCH_DATE":"2021-12-02","CENTER_NAME":"EARTH","ECCENTRICITY":"0.00011790","NORAD_CAT_ID":"49767","BSTAR":"0.00004859400000","GP_ID":"230658553","CLASSIFICATION_TYPE":"U","MEAN_MOTION_DOT":"0.00000485","ARG_OF_PERICENTER":"90.5078","SEMIMAJOR_AXIS":"6917.918","RA_OF_ASC_NODE":"178.4701","APOAPSIS":"540.598","OBJECT_TYPE":"PAYLOAD","OBJECT_ID":"2021-115AV","DECAY_DATE":null,"MEAN_ANOMALY":"269.6049","TLE_LINE1":"1 49767U 21115AV  23113.41668196  .00000485  00000-0  48594-4 0  9995","SITE":"AFETR","INCLINATION":"53.2175","PERIAPSIS":"538.967","MEAN_MOTION_DDOT":"0.0000000000000","OBJECT_NAME":"STARLINK-3192","FILE":"3892831","EPHEMERIS_TYPE":"0","PERIOD":"95.438","MEAN_MOTION":"15.08827823"},{"MEAN_ELEMENT_THEORY":"SGP4","REV_AT_EPOCH":"7701","TIME_SYSTEM":"UTC","REF_FRAME":"TEME","ELEMENT_SET_NO":"999","EPOCH":"2023-04-23T16:42:44.031744","TLE_LINE2":"2 49768  53.2134 177.2082 0001682 203.4378 156.6538 15.08838393 77012","RCS_SIZE":"LARGE","COUNTRY_CODE":"US","LAUNCH_DATE":"2021-12-02","BSTAR":"0.00035835000000","ECCENTRICITY":"0.00016820","CENTER_NAME":"EARTH","NORAD_CAT_ID":"49768","MEAN_MOTION_DOT":"0.00005420","ARG_OF_PERICENTER":"203.4378","GP_ID":"230659805","CLASSIFICATION_TYPE":"U","RA_OF_ASC_NODE":"177.2082","SEMIMAJOR_AXIS":"6917.885","DECAY_DATE":null,"OBJECT_ID":"2021-115AW","OBJECT_TYPE":"PAYLOAD","APOAPSIS":"540.914","PERIAPSIS":"538.587","MEAN_ANOMALY":"156.6538","INCLINATION":"53.2134","TLE_LINE1":"1 49768U 21115AW  23113.69634296  .00005420  00000-0  35835-3 0  9997","SITE":"AFETR","EPHEMERIS_TYPE":"0","FILE":"3892831","OBJECT_NAME":"STARLINK-3196","MEAN_MOTION_DDOT":"0.0000000000000","MEAN_MOTION":"15.08838393","PERIOD":"95.438"},{"MEAN_MOTION_DDOT":"0.0000000000000","FILE":"3892688","EPHEMERIS_TYPE":"0","OBJECT_NAME":"STARLINK-3208","MEAN_ANOMALY":"267.1964","SITE":"AFETR","TLE_LINE1":"1 49769U 21115AX  23113.56483592  .00000079  00000-0  23028-4 0  9992","INCLINATION":"53.2145","PERIAPSIS":"538.927","PERIOD":"95.438","MEAN_MOTION":"15.08836948","GP_ID":"230628861","CLASSIFICATION_TYPE":"U","MEAN_MOTION_DOT":"0.00000079","ARG_OF_PERICENTER":"92.9165","CENTER_NAME":"EARTH","ECCENTRICITY":"0.00011970","NORAD_CAT_ID":"49769","BSTAR":"0.00002302800000","APOAPSIS":"540.583","OBJECT_TYPE":"PAYLOAD","DECAY_DATE":null,"OBJECT_ID":"2021-115AX","SEMIMAJOR_AXIS":"6917.890","RA_OF_ASC_NODE":"177.8523","ELEMENT_SET_NO":"999","EPOCH":"2023-04-23T13:33:21.823488","TLE_LINE2":"2 49769  53.2145 177.8523 0001197  92.9165 267.1964 15.08836948 76998","REF_FRAME":"TEME","COUNTRY_CODE":"US","LAUNCH_DATE":"2021-12-02","RCS_SIZE":"LARGE","MEAN_ELEMENT_THEORY":"SGP4","TIME_SYSTEM":"UTC","REV_AT_EPOCH":"7699"},{"BSTAR":"0.00018311000000","CENTER_NAME":"EARTH","ECCENTRICITY":"0.00015350","NORAD_CAT_ID":"49770","MEAN_MOTION_DOT":"0.00002628","ARG_OF_PERICENTER":"76.2654","GP_ID":"230630111","CLASSIFICATION_TYPE":"U","RA_OF_ASC_NODE":"177.8211","SEMIMAJOR_AXIS":"6917.874","OBJECT_ID":"2021-115AY","DECAY_DATE":null,"OBJECT_TYPE":"PAYLOAD","APOAPSIS":"540.801","PERIAPSIS":"538.677","MEAN_ANOMALY":"283.8508","SITE":"AFETR","TLE_LINE1":"1 49770U 21115AY  23113.57219874  .00002628  00000-0  18311-3 0  9995","INCLINATION":"53.2136","FILE":"3892688","EPHEMERIS_TYPE":"0","OBJECT_NAME":"STARLINK-3191","MEAN_MOTION_DDOT":"0.0000000000000","MEAN_MOTION":"15.08842078","PERIOD":"95.437","MEAN_ELEMENT_THEORY":"SGP4","REV_AT_EPOCH":"7811","TIME_SYSTEM":"UTC","REF_FRAME":"TEME","ELEMENT_SET_NO":"999","TLE_LINE2":"2 49770  53.2136 177.8211 0001535  76.2654 283.8508 15.08842078 78114","EPOCH":"2023-04-23T13:43:57.971136","RCS_SIZE":"LARGE","LAUNCH_DATE":"2021-12-02","COUNTRY_CODE":"US"},{"RCS_SIZE":"LARGE","LAUNCH_DATE":"2021-12-02","COUNTRY_CODE":"US","REF_FRAME":"TEME","TLE_LINE2":"2 49771  53.2157 176.5848 0000989  91.9812 268.1293 15.08842552 77036","EPOCH":"2023-04-23T20:04:07.079520","ELEMENT_SET_NO":"999","TIME_SYSTEM":"UTC","REV_AT_EPOCH":"7703","MEAN_ELEMENT_THEORY":"SGP4","PERIOD":"95.437","MEAN_MOTION":"15.08842552","INCLINATION":"53.2157","TLE_LINE1":"1 49771U 21115AZ  23113.83619305  .00002549  00000-0  17815-3 0  9998","SITE":"AFETR","MEAN_ANOMALY":"268.1293","PERIAPSIS":"539.053","MEAN_MOTION_DDOT":"0.0000000000000","FILE":"3892831","OBJECT_NAME":"STARLINK-3201","EPHEMERIS_TYPE":"0","SEMIMAJOR_AXIS":"6917.873","RA_OF_ASC_NODE":"176.5848","OBJECT_TYPE":"PAYLOAD","APOAPSIS":"540.422","OBJECT_ID":"2021-115AZ","DECAY_DATE":null,"NORAD_CAT_ID":"49771","ECCENTRICITY":"0.00009890","CENTER_NAME":"EARTH","BSTAR":"0.00017815000000","CLASSIFICATION_TYPE":"U","GP_ID":"230659054","MEAN_MOTION_DOT":"0.00002549","ARG_OF_PERICENTER":"91.9812"}];
